start=new Date('2021-12-10T00:00:00.000Z').valueOf();
sats=[{"GP_ID":"191397857","ELEMENT_SET_NO":"999","BSTAR":"0.00263470000000","CLASSIFICATION_TYPE":"U","OBJECT_ID":"2020-062BF","LAUNCH_DATE":"2020-09-03","TIME_SYSTEM":"UTC","MEAN_MOTION_DOT":"0.00119859","ECCENTRICITY":"0.00018980","ARG_OF_PERICENTER":"53.2803","DECAY_DATE":null,"TLE_LINE1":"1 46378U 20062BF  21343.78374213  .00119859  00000-0  26347-2 0  9993","SITE":"AFETR","REV_AT_EPOCH":"7125","TLE_LINE2":"2 46378  53.0549  88.4845 0001898  53.2803 306.8376 15.43118550 71251","CENTER_NAME":"EARTH","PERIOD":"93.318","EPOCH":"2021-12-09T18:48:35.320032","EPHEMERIS_TYPE":"0","FILE":"3236488","NORAD_CAT_ID":"46378","MEAN_MOTION_DDOT":"0.0000000000000","RA_OF_ASC_NODE":"88.4845","COUNTRY_CODE":"US","MEAN_MOTION":"15.43118550","RCS_SIZE":"LARGE","OBJECT_TYPE":"PAYLOAD","MEAN_ANOMALY":"306.8376","APOAPSIS":"438.207","PERIAPSIS":"435.620","INCLINATION":"53.0549","OBJECT_NAME":"STARLINK-1751","REF_FRAME":"TEME","MEAN_ELEMENT_THEORY":"SGP4","SEMIMAJOR_AXIS":"6815.049"},{"COUNTRY_CODE":"US","MEAN_MOTION":"15.06396928","RCS_SIZE":"LARGE","FILE":"3236488","NORAD_CAT_ID":"46380","MEAN_MOTION_DDOT":"0.0000000000000","RA_OF_ASC_NODE":"119.4826","REF_FRAME":"TEME","SEMIMAJOR_AXIS":"6925.358","MEAN_ELEMENT_THEORY":"SGP4","MEAN_ANOMALY":"266.3784","OBJECT_TYPE":"PAYLOAD","INCLINATION":"53.0549","OBJECT_NAME":"STARLINK-1758","APOAPSIS":"548.391","PERIAPSIS":"546.055","TIME_SYSTEM":"UTC","LAUNCH_DATE":"2020-09-03","OBJECT_ID":"2020-062BH","MEAN_MOTION_DOT":"0.00000667","BSTAR":"0.00006368700000","CLASSIFICATION_TYPE":"U","GP_ID":"191398607","ELEMENT_SET_NO":"999","PERIOD":"95.592","EPOCH":"2021-12-09T15:40:53.899968","EPHEMERIS_TYPE":"0","ARG_OF_PERICENTER":"93.7398","ECCENTRICITY":"0.00016870","SITE":"AFETR","TLE_LINE1":"1 46380U 20062BH  21343.65340162  .00000667  00000-0  63687-4 0  9994","CENTER_NAME":"EARTH","TLE_LINE2":"2 46380  53.0549 119.4826 0001687  93.7398 266.3784 15.06396928 70812","REV_AT_EPOCH":"7081","DECAY_DATE":null},{"CLASSIFICATION_TYPE":"U","BSTAR":"-0.00004334300000","ELEMENT_SET_NO":"999","GP_ID":"191398859","MEAN_MOTION_DOT":"-0.00000927","TIME_SYSTEM":"UTC","LAUNCH_DATE":"2020-09-03","OBJECT_ID":"2020-062BK","REV_AT_EPOCH":"7117","TLE_LINE2":"2 46382  53.0552  94.2845 0001097  91.7412 268.3703 15.06402289 71170","CENTER_NAME":"EARTH","TLE_LINE1":"1 46382U 20062BK  21343.70178044 -.00000927  00000-0 -43343-4 0  9998","SITE":"AFETR","DECAY_DATE":null,"ARG_OF_PERICENTER":"91.7412","ECCENTRICITY":"0.00010970","EPHEMERIS_TYPE":"0","PERIOD":"95.592","EPOCH":"2021-12-09T16:50:33.830016","RA_OF_ASC_NODE":"94.2845","MEAN_MOTION_DDOT":"0.0000000000000","NORAD_CAT_ID":"46382","FILE":"3236488","RCS_SIZE":"LARGE","MEAN_MOTION":"15.06402289","COUNTRY_CODE":"US","INCLINATION":"53.0552","OBJECT_NAME":"STARLINK-1769","PERIAPSIS":"546.447","APOAPSIS":"547.966","OBJECT_TYPE":"PAYLOAD","MEAN_ANOMALY":"268.3703","SEMIMAJOR_AXIS":"6925.342","MEAN_ELEMENT_THEORY":"SGP4","REF_FRAME":"TEME"},{"OBJECT_TYPE":"PAYLOAD","MEAN_ANOMALY":"268.8168","INCLINATION":"53.0540","OBJECT_NAME":"STARLINK-1770","APOAPSIS":"548.703","PERIAPSIS":"545.716","REF_FRAME":"TEME","SEMIMAJOR_AXIS":"6925.345","MEAN_ELEMENT_THEORY":"SGP4","FILE":"3236488","NORAD_CAT_ID":"46383","RA_OF_ASC_NODE":"139.3371","MEAN_MOTION_DDOT":"0.0000000000000","COUNTRY_CODE":"US","MEAN_MOTION":"15.06401282","RCS_SIZE":"LARGE","ARG_OF_PERICENTER":"91.3068","ECCENTRICITY":"0.00021570","TLE_LINE2":"2 46383  53.0540 139.3371 0002157  91.3068 268.8168 15.06401282 70535","CENTER_NAME":"EARTH","REV_AT_EPOCH":"7053","TLE_LINE1":"1 46383U 20062BL  21343.68843009  .00000765  00000-0  70281-4 0  9995","SITE":"AFETR","DECAY_DATE":null,"EPOCH":"2021-12-09T16:31:20.359776","PERIOD":"95.592","EPHEMERIS_TYPE":"0","CLASSIFICATION_TYPE":"U","BSTAR":"0.00007028100000","ELEMENT_SET_NO":"999","GP_ID":"191399609","TIME_SYSTEM":"UTC","LAUNCH_DATE":"2020-09-03","OBJECT_ID":"2020-062BL","MEAN_MOTION_DOT":"0.00000765"},{"MEAN_ELEMENT_THEORY":"SGP4","SEMIMAJOR_AXIS":"6925.352","REF_FRAME":"TEME","PERIAPSIS":"545.737","APOAPSIS":"548.698","OBJECT_NAME":"STARLINK-1771","INCLINATION":"53.0551","OBJECT_TYPE":"PAYLOAD","MEAN_ANOMALY":"268.2734","RCS_SIZE":"LARGE","MEAN_MOTION":"15.06398722","COUNTRY_CODE":"US","RA_OF_ASC_NODE":"139.3031","MEAN_MOTION_DDOT":"0.0000000000000","NORAD_CAT_ID":"46384","FILE":"3236488","EPHEMERIS_TYPE":"0","EPOCH":"2021-12-09T16:36:38.427552","PERIOD":"95.592","DECAY_DATE":null,"TLE_LINE2":"2 46384  53.0551 139.3031 0002138  91.8500 268.2734 15.06398722 70533","CENTER_NAME":"EARTH","REV_AT_EPOCH":"7053","SITE":"AFETR","TLE_LINE1":"1 46384U 20062BM  21343.69211143 -.00001400  00000-0 -75065-4 0  9999","ECCENTRICITY":"0.00021380","ARG_OF_PERICENTER":"91.8500","MEAN_MOTION_DOT":"-0.00001400","LAUNCH_DATE":"2020-09-03","OBJECT_ID":"2020-062BM","TIME_SYSTEM":"UTC","ELEMENT_SET_NO":"999","GP_ID":"191398357","CLASSIFICATION_TYPE":"U","BSTAR":"-0.00007506500000"},{"PERIAPSIS":"545.618","APOAPSIS":"548.794","OBJECT_NAME":"STARLINK-1644","INCLINATION":"53.0545","MEAN_ANOMALY":"301.8581","OBJECT_TYPE":"PAYLOAD","MEAN_ELEMENT_THEORY":"SGP4","SEMIMAJOR_AXIS":"6925.341","REF_FRAME":"TEME","RA_OF_ASC_NODE":"301.1069","MEAN_MOTION_DDOT":"0.0000000000000","NORAD_CAT_ID":"46532","FILE":"3236488","RCS_SIZE":"LARGE","MEAN_MOTION":"15.06402560","COUNTRY_CODE":"US","DECAY_DATE":null,"REV_AT_EPOCH":"6567","TLE_LINE2":"2 46532  53.0545 301.1069 0002293  58.2632 301.8581 15.06402560 65675","CENTER_NAME":"EARTH","SITE":"AFETR","TLE_LINE1":"1 46532U 20070A   21343.29402033  .00001646  00000-0  12936-3 0  9996","ECCENTRICITY":"0.00022930","ARG_OF_PERICENTER":"58.2632","EPHEMERIS_TYPE":"0","PERIOD":"95.592","EPOCH":"2021-12-09T07:03:23.356512","ELEMENT_SET_NO":"999","GP_ID":"191399623","CLASSIFICATION_TYPE":"U","BSTAR":"0.00012936000000","MEAN_MOTION_DOT":"0.00001646","OBJECT_ID":"2020-070A","LAUNCH_DATE":"2020-10-06","TIME_SYSTEM":"UTC"},{"EPOCH":"2021-12-09T07:19:19.376832","PERIOD":"95.593","EPHEMERIS_TYPE":"0","ARG_OF_PERICENTER":"55.2844","ECCENTRICITY":"0.00021940","SITE":"AFETR","TLE_LINE1":"1 46533U 20070B   21343.30508538 -.00000423  00000-0 -95139-5 0  9998","TLE_LINE2":"2 46533  53.0523 301.0694 0002194  55.2844 304.8351 15.06391214 65678","REV_AT_EPOCH":"6567","CENTER_NAME":"EARTH","DECAY_DATE":null,"TIME_SYSTEM":"UTC","LAUNCH_DATE":"2020-10-06","OBJECT_ID":"2020-070B","MEAN_MOTION_DOT":"-0.00000423","BSTAR":"-0.00000951390000","CLASSIFICATION_TYPE":"U","GP_ID":"191398371","ELEMENT_SET_NO":"999","REF_FRAME":"TEME","SEMIMAJOR_AXIS":"6925.375","MEAN_ELEMENT_THEORY":"SGP4","MEAN_ANOMALY":"304.8351","OBJECT_TYPE":"PAYLOAD","INCLINATION":"53.0523","OBJECT_NAME":"STARLINK-1648","APOAPSIS":"548.760","PERIAPSIS":"545.721","COUNTRY_CODE":"US","RCS_SIZE":"LARGE","MEAN_MOTION":"15.06391214","NORAD_CAT_ID":"46533","FILE":"3236488","MEAN_MOTION_DDOT":"0.0000000000000","RA_OF_ASC_NODE":"301.0694"},{"SEMIMAJOR_AXIS":"6925.357","MEAN_ELEMENT_THEORY":"SGP4","REF_FRAME":"TEME","INCLINATION":"53.0533","OBJECT_NAME":"STARLINK-1659","PERIAPSIS":"545.897","APOAPSIS":"548.547","MEAN_ANOMALY":"296.2697","OBJECT_TYPE":"PAYLOAD","RCS_SIZE":"LARGE","MEAN_MOTION":"15.06397218","COUNTRY_CODE":"US","RA_OF_ASC_NODE":"298.4545","MEAN_MOTION_DDOT":"0.0000000000000","FILE":"3236488","NORAD_CAT_ID":"46534","EPHEMERIS_TYPE":"0","EPOCH":"2021-12-09T21:12:37.992384","PERIOD":"95.592","REV_AT_EPOCH":"6576","TLE_LINE2":"2 46534  53.0533 298.4545 0001913  63.8488 296.2697 15.06397218 65768","CENTER_NAME":"EARTH","SITE":"AFETR","TLE_LINE1":"1 46534U 20070C   21343.88377306  .00000561  00000-0  56570-4 0  9995","DECAY_DATE":null,"ARG_OF_PERICENTER":"63.8488","ECCENTRICITY":"0.00019130","MEAN_MOTION_DOT":"0.00000561","TIME_SYSTEM":"UTC","OBJECT_ID":"2020-070C","LAUNCH_DATE":"2020-10-06","CLASSIFICATION_TYPE":"U","BSTAR":"0.00005657000000","ELEMENT_SET_NO":"999","GP_ID":"191398122"},{"ARG_OF_PERICENTER":"54.1800","ECCENTRICITY":"0.00019640","SITE":"AFETR","TLE_LINE1":"1 46535U 20070D   21343.87271791  .00000973  00000-0  84211-4 0  9996","TLE_LINE2":"2 46535  53.0549 298.5137 0001964  54.1800 305.9371 15.06390718 65755","CENTER_NAME":"EARTH","REV_AT_EPOCH":"6575","DECAY_DATE":null,"PERIOD":"95.593","EPOCH":"2021-12-09T20:56:42.827424","EPHEMERIS_TYPE":"0","BSTAR":"0.00008421100000","CLASSIFICATION_TYPE":"U","GP_ID":"191399373","ELEMENT_SET_NO":"999","TIME_SYSTEM":"UTC","OBJECT_ID":"2020-070D","LAUNCH_DATE":"2020-10-06","MEAN_MOTION_DOT":"0.00000973","MEAN_ANOMALY":"305.9371","OBJECT_TYPE":"PAYLOAD","INCLINATION":"53.0549","OBJECT_NAME":"STARLINK-1663","APOAPSIS":"548.602","PERIAPSIS":"545.882","REF_FRAME":"TEME","SEMIMAJOR_AXIS":"6925.377","MEAN_ELEMENT_THEORY":"SGP4","FILE":"3236488","NORAD_CAT_ID":"46535","MEAN_MOTION_DDOT":"0.0000000000000","RA_OF_ASC_NODE":"298.5137","COUNTRY_CODE":"US","MEAN_MOTION":"15.06390718","RCS_SIZE":"LARGE"},{"LAUNCH_DATE":"2020-10-06","OBJECT_ID":"2020-070E","TIME_SYSTEM":"UTC","MEAN_MOTION_DOT":"0.00040986","ELEMENT_SET_NO":"999","GP_ID":"191399124","CLASSIFICATION_TYPE":"U","BSTAR":"0.00024686000000","EPOCH":"2021-12-09T19:23:21.077376","PERIOD":"91.303","EPHEMERIS_TYPE":"0","ECCENTRICITY":"0.00144470","ARG_OF_PERICENTER":"225.9084","DECAY_DATE":null,"REV_AT_EPOCH":"6638","TLE_LINE2":"2 46536  53.0528 253.7638 0014447 225.9084 134.0748 15.77160122 66385","CENTER_NAME":"EARTH","TLE_LINE1":"1 46536U 20070E   21343.80788284  .00040986  00000-0  24686-3 0  9997","SITE":"AFETR","COUNTRY_CODE":"US","RCS_SIZE":"LARGE","MEAN_MOTION":"15.77160122","NORAD_CAT_ID":"46536","FILE":"3236488","RA_OF_ASC_NODE":"253.7638","MEAN_MOTION_DDOT":"0.0000000000000","REF_FRAME":"TEME","MEAN_ELEMENT_THEORY":"SGP4","SEMIMAJOR_AXIS":"6716.628","OBJECT_TYPE":"PAYLOAD","MEAN_ANOMALY":"134.0748","PERIAPSIS":"328.790","APOAPSIS":"348.197","INCLINATION":"53.0528","OBJECT_NAME":"STARLINK-1668"}];
